start=new Date('2021-11-01T00:00:00.000Z').valueOf();
sats=[{"MEAN_MOTION_DOT":"-0.00000793","MEAN_ANOMALY":"292.5057","NORAD_CAT_ID":"48562","MEAN_MOTION_DDOT":"0.0000000000000","EPOCH":"2021-10-31T19:28:26.932512","GP_ID":"188608093","TLE_LINE2":"2 48562  53.0583  68.8615 0001398  67.6080 292.5057 15.06400764 25575","ARG_OF_PERICENTER":"67.6080","RA_OF_ASC_NODE":"68.8615","ECCENTRICITY":"0.00013980","CLASSIFICATION_TYPE":"U","APOAPSIS":"548.179","COUNTRY_CODE":"US","EPHEMERIS_TYPE":"0","REV_AT_EPOCH":"2557","OBJECT_TYPE":"PAYLOAD","MEAN_ELEMENT_THEORY":"SGP4","SITE":"AFETR","OBJECT_ID":"2021-041K","PERIOD":"95.592","SEMIMAJOR_AXIS":"6925.346","INCLINATION":"53.0583","RCS_SIZE":"LARGE","BSTAR":"-0.00003436900000","DECAY_DATE":null,"PERIAPSIS":"546.243","LAUNCH_DATE":"2021-05-15","REF_FRAME":"TEME","TLE_LINE1":"1 48562U 21041K   21304.81142283 -.00000793  00000-0 -34369-4 0  9992","FILE":"3194950","MEAN_MOTION":"15.06400764","OBJECT_NAME":"STARLINK-2187","TIME_SYSTEM":"UTC","ELEMENT_SET_NO":"999","CENTER_NAME":"EARTH"},{"FILE":"3194950","MEAN_MOTION":"15.06400816","OBJECT_NAME":"STARLINK-2188","TIME_SYSTEM":"UTC","CENTER_NAME":"EARTH","ELEMENT_SET_NO":"999","LAUNCH_DATE":"2021-05-15","REF_FRAME":"TEME","TLE_LINE1":"1 48563U 21041L   21304.82985264  .00000688  00000-0  65100-4 0  9996","BSTAR":"0.00006510000000","DECAY_DATE":null,"PERIAPSIS":"546.093","OBJECT_ID":"2021-041L","PERIOD":"95.592","SEMIMAJOR_AXIS":"6925.346","INCLINATION":"53.0572","RCS_SIZE":"LARGE","REV_AT_EPOCH":"2557","OBJECT_TYPE":"PAYLOAD","SITE":"AFETR","MEAN_ELEMENT_THEORY":"SGP4","CLASSIFICATION_TYPE":"U","APOAPSIS":"548.329","COUNTRY_CODE":"US","EPHEMERIS_TYPE":"0","TLE_LINE2":"2 48563  53.0572  68.7837 0001614  85.2583 274.8590 15.06400816 25577","ARG_OF_PERICENTER":"85.2583","RA_OF_ASC_NODE":"68.7837","ECCENTRICITY":"0.00016140","MEAN_MOTION_DOT":"0.00000688","MEAN_ANOMALY":"274.8590","NORAD_CAT_ID":"48563","MEAN_MOTION_DDOT":"0.0000000000000","EPOCH":"2021-10-31T19:54:59.268096","GP_ID":"188607978"},{"MEAN_MOTION_DDOT":"0.0000000000000","EPOCH":"2021-10-31T18:08:49.949088","GP_ID":"188608665","NORAD_CAT_ID":"48564","MEAN_MOTION_DOT":"-0.00000704","MEAN_ANOMALY":"272.6047","ECCENTRICITY":"0.00013120","RA_OF_ASC_NODE":"69.1081","TLE_LINE2":"2 48564  53.0568  69.1081 0001312  87.5092 272.6047 15.06400008 25569","ARG_OF_PERICENTER":"87.5092","COUNTRY_CODE":"US","EPHEMERIS_TYPE":"0","APOAPSIS":"548.122","CLASSIFICATION_TYPE":"U","SITE":"AFETR","MEAN_ELEMENT_THEORY":"SGP4","OBJECT_TYPE":"PAYLOAD","REV_AT_EPOCH":"2556","INCLINATION":"53.0568","RCS_SIZE":"LARGE","SEMIMAJOR_AXIS":"6925.349","OBJECT_ID":"2021-041M","PERIOD":"95.592","DECAY_DATE":null,"PERIAPSIS":"546.305","BSTAR":"-0.00002837700000","TLE_LINE1":"1 48564U 21041M   21304.75613367 -.00000704  00000-0 -28377-4 0  9997","REF_FRAME":"TEME","LAUNCH_DATE":"2021-05-15","CENTER_NAME":"EARTH","ELEMENT_SET_NO":"999","OBJECT_NAME":"STARLINK-2190","TIME_SYSTEM":"UTC","MEAN_MOTION":"15.06400008","FILE":"3194950"},{"ARG_OF_PERICENTER":"93.9420","TLE_LINE2":"2 48565  53.0584  68.8304 0001280  93.9420 266.1715 15.06397957 25571","ECCENTRICITY":"0.00012800","RA_OF_ASC_NODE":"68.8304","MEAN_ANOMALY":"266.1715","MEAN_MOTION_DOT":"0.00000810","GP_ID":"188608216","MEAN_MOTION_DDOT":"0.0000000000000","EPOCH":"2021-10-31T19:39:03.852576","NORAD_CAT_ID":"48565","REV_AT_EPOCH":"2557","MEAN_ELEMENT_THEORY":"SGP4","SITE":"AFETR","OBJECT_TYPE":"PAYLOAD","CLASSIFICATION_TYPE":"U","COUNTRY_CODE":"US","EPHEMERIS_TYPE":"0","APOAPSIS":"548.106","BSTAR":"0.00007324700000","PERIAPSIS":"546.333","DECAY_DATE":null,"PERIOD":"95.592","OBJECT_ID":"2021-041N","RCS_SIZE":"LARGE","INCLINATION":"53.0584","SEMIMAJOR_AXIS":"6925.355","MEAN_MOTION":"15.06397957","FILE":"3194950","ELEMENT_SET_NO":"999","CENTER_NAME":"EARTH","TIME_SYSTEM":"UTC","OBJECT_NAME":"STARLINK-2191","LAUNCH_DATE":"2021-05-15","TLE_LINE1":"1 48565U 21041N   21304.81879459  .00000810  00000-0  73247-4 0  9993","REF_FRAME":"TEME"},{"ARG_OF_PERICENTER":"91.4712","TLE_LINE2":"2 48566  53.0559  78.7152 0001188  91.4712 268.6413 15.06401116 25439","ECCENTRICITY":"0.00011880","RA_OF_ASC_NODE":"78.7152","MEAN_ANOMALY":"268.6413","MEAN_MOTION_DOT":"0.00001572","GP_ID":"188608447","MEAN_MOTION_DDOT":"0.0000000000000","EPOCH":"2021-10-31T20:13:31.709568","NORAD_CAT_ID":"48566","REV_AT_EPOCH":"2543","MEAN_ELEMENT_THEORY":"SGP4","SITE":"AFETR","OBJECT_TYPE":"PAYLOAD","CLASSIFICATION_TYPE":"U","EPHEMERIS_TYPE":"0","COUNTRY_CODE":"US","APOAPSIS":"548.033","BSTAR":"0.00012441000000","PERIAPSIS":"546.387","DECAY_DATE":null,"PERIOD":"95.592","OBJECT_ID":"2021-041P","RCS_SIZE":"LARGE","INCLINATION":"53.0559","SEMIMAJOR_AXIS":"6925.345","MEAN_MOTION":"15.06401116","FILE":"3194950","ELEMENT_SET_NO":"999","CENTER_NAME":"EARTH","TIME_SYSTEM":"UTC","OBJECT_NAME":"STARLINK-2214","LAUNCH_DATE":"2021-05-15","TLE_LINE1":"1 48566U 21041P   21304.84272812  .00001572  00000-0  12441-3 0  9991","REF_FRAME":"TEME"},{"ELEMENT_SET_NO":"999","CENTER_NAME":"EARTH","OBJECT_NAME":"STARLINK-2215","TIME_SYSTEM":"UTC","MEAN_MOTION":"15.06408397","FILE":"3194950","TLE_LINE1":"1 48567U 21041Q   21304.65569305 -.00000746  00000-0 -31177-4 0  9999","REF_FRAME":"TEME","LAUNCH_DATE":"2021-05-15","DECAY_DATE":null,"PERIAPSIS":"546.154","BSTAR":"-0.00003117700000","INCLINATION":"53.0552","RCS_SIZE":"LARGE","SEMIMAJOR_AXIS":"6925.323","OBJECT_ID":"2021-041Q","PERIOD":"95.592","MEAN_ELEMENT_THEORY":"SGP4","SITE":"AFETR","OBJECT_TYPE":"PAYLOAD","REV_AT_EPOCH":"2540","COUNTRY_CODE":"US","EPHEMERIS_TYPE":"0","APOAPSIS":"548.222","CLASSIFICATION_TYPE":"U","ECCENTRICITY":"0.00014930","RA_OF_ASC_NODE":"79.5482","TLE_LINE2":"2 48567  53.0552  79.5482 0001493  88.6674 271.4486 15.06408397 25409","ARG_OF_PERICENTER":"88.6674","MEAN_MOTION_DDOT":"0.0000000000000","EPOCH":"2021-10-31T15:44:11.879520","GP_ID":"188608332","NORAD_CAT_ID":"48567","MEAN_MOTION_DOT":"-0.00000746","MEAN_ANOMALY":"271.4486"},{"REV_AT_EPOCH":"2545","OBJECT_TYPE":"PAYLOAD","SITE":"AFETR","MEAN_ELEMENT_THEORY":"SGP4","CLASSIFICATION_TYPE":"U","APOAPSIS":"548.157","COUNTRY_CODE":"US","EPHEMERIS_TYPE":"0","ARG_OF_PERICENTER":"81.6663","TLE_LINE2":"2 48568  53.0530  72.1867 0001369  81.6663 278.4481 15.06401434 25457","RA_OF_ASC_NODE":"72.1867","ECCENTRICITY":"0.00013690","MEAN_ANOMALY":"278.4481","MEAN_MOTION_DOT":"-0.00000243","NORAD_CAT_ID":"48568","GP_ID":"188574020","MEAN_MOTION_DDOT":"0.0000000000000","EPOCH":"2021-10-31T01:41:35.901024","FILE":"3194431","MEAN_MOTION":"15.06401434","TIME_SYSTEM":"UTC","OBJECT_NAME":"STARLINK-2217","CENTER_NAME":"EARTH","ELEMENT_SET_NO":"999","LAUNCH_DATE":"2021-05-15","REF_FRAME":"TEME","TLE_LINE1":"1 48568U 21041R   21304.07055441 -.00000243  00000-0  25995-5 0  9990","BSTAR":"0.00000259950000","PERIAPSIS":"546.261","DECAY_DATE":null,"PERIOD":"95.592","OBJECT_ID":"2021-041R","SEMIMAJOR_AXIS":"6925.344","RCS_SIZE":"LARGE","INCLINATION":"53.0530"},{"FILE":"3194950","MEAN_MOTION":"15.06388516","TIME_SYSTEM":"UTC","OBJECT_NAME":"STARLINK-2219","ELEMENT_SET_NO":"999","CENTER_NAME":"EARTH","LAUNCH_DATE":"2021-05-15","REF_FRAME":"TEME","TLE_LINE1":"1 48569U 21041S   21304.62712937  .00002893  00000-0  21309-3 0  9997","BSTAR":"0.00021309000000","PERIAPSIS":"546.298","DECAY_DATE":null,"PERIOD":"95.593","OBJECT_ID":"2021-041S","SEMIMAJOR_AXIS":"6925.384","RCS_SIZE":"LARGE","INCLINATION":"53.0574","REV_AT_EPOCH":"2554","OBJECT_TYPE":"PAYLOAD","SITE":"AFETR","MEAN_ELEMENT_THEORY":"SGP4","CLASSIFICATION_TYPE":"U","APOAPSIS":"548.200","COUNTRY_CODE":"US","EPHEMERIS_TYPE":"0","ARG_OF_PERICENTER":"95.7764","TLE_LINE2":"2 48569  53.0574  69.6950 0001373  95.7764 264.3382 15.06388516 25542","RA_OF_ASC_NODE":"69.6950","ECCENTRICITY":"0.00013730","MEAN_ANOMALY":"264.3382","MEAN_MOTION_DOT":"0.00002893","NORAD_CAT_ID":"48569","GP_ID":"188607863","EPOCH":"2021-10-31T15:03:03.977568","MEAN_MOTION_DDOT":"0.0000000000000"},{"ECCENTRICITY":"0.00017320","RA_OF_ASC_NODE":"79.1388","ARG_OF_PERICENTER":"84.8355","TLE_LINE2":"2 48570  53.0550  79.1388 0001732  84.8355 275.2832 15.06394258 25410","GP_ID":"188608094","MEAN_MOTION_DDOT":"0.0000000000000","EPOCH":"2021-10-31T17:56:53.911680","NORAD_CAT_ID":"48570","MEAN_ANOMALY":"275.2832","MEAN_MOTION_DOT":"0.00000334","MEAN_ELEMENT_THEORY":"SGP4","SITE":"AFETR","OBJECT_TYPE":"PAYLOAD","REV_AT_EPOCH":"2541","COUNTRY_CODE":"US","EPHEMERIS_TYPE":"0","APOAPSIS":"548.431","CLASSIFICATION_TYPE":"U","PERIAPSIS":"546.032","DECAY_DATE":null,"BSTAR":"0.00004135400000","RCS_SIZE":"LARGE","INCLINATION":"53.0550","SEMIMAJOR_AXIS":"6925.366","PERIOD":"95.593","OBJECT_ID":"2021-041T","CENTER_NAME":"EARTH","ELEMENT_SET_NO":"999","TIME_SYSTEM":"UTC","OBJECT_NAME":"STARLINK-2220","MEAN_MOTION":"15.06394258","FILE":"3194950","TLE_LINE1":"1 48570U 21041T   21304.74784620  .00000334  00000-0  41354-4 0  9991","REF_FRAME":"TEME","LAUNCH_DATE":"2021-05-15"},{"INCLINATION":"53.0556","RCS_SIZE":"LARGE","SEMIMAJOR_AXIS":"6925.328","OBJECT_ID":"2021-041U","PERIOD":"95.592","DECAY_DATE":null,"PERIAPSIS":"546.160","BSTAR":"0.00017981000000","TLE_LINE1":"1 48571U 21041U   21304.09174572  .00002398  00000-0  17981-3 0  9999","REF_FRAME":"TEME","LAUNCH_DATE":"2021-05-15","CENTER_NAME":"EARTH","ELEMENT_SET_NO":"999","OBJECT_NAME":"STARLINK-2221","TIME_SYSTEM":"UTC","MEAN_MOTION":"15.06406552","FILE":"3194431","MEAN_MOTION_DDOT":"0.0000000000000","EPOCH":"2021-10-31T02:12:06.830208","GP_ID":"188573334","NORAD_CAT_ID":"48571","MEAN_MOTION_DOT":"0.00002398","MEAN_ANOMALY":"271.6717","ECCENTRICITY":"0.00014920","RA_OF_ASC_NODE":"82.0894","TLE_LINE2":"2 48571  53.0556  82.0894 0001492  88.4443 271.6717 15.06406552 25326","ARG_OF_PERICENTER":"88.4443","EPHEMERIS_TYPE":"0","COUNTRY_CODE":"US","APOAPSIS":"548.227","CLASSIFICATION_TYPE":"U","MEAN_ELEMENT_THEORY":"SGP4","SITE":"AFETR","OBJECT_TYPE":"PAYLOAD","REV_AT_EPOCH":"2532"}];
